[{"OBJECT_NAME":"STARLINK-2640","OBJECT_ID":"2021-040L","EPOCH":"2026-03-09T14:24:31.425408","MEAN_MOTION":15.30197527,"ECCENTRICITY":0.0001313,"INCLINATION":53.1614,"RA_OF_ASC_NODE":178.5516,"ARG_OF_PERICENTER":101.7089,"MEAN_ANOMALY":258.4059,"EPHEMERIS_TYPE":0,"CLASSIFICATION_TYPE":"U","NORAD_CAT_ID":48438,"ELEMENT_SET_NO":999,"REV_AT_EPOCH":26666,"BSTAR":-4.3242e-5,"MEAN_MOTION_DOT":-1.64e-5,"MEAN_MOTION_DDOT":0},{"OBJECT_NAME":"FREGAT DEB","OBJECT_ID":"2011-037BH","EPOCH":"2026-03-09T13:07:54.597216","MEAN_MOTION":11.33026983,"ECCENTRICITY":0.18797348,"INCLINATION":51.4387,"RA_OF_ASC_NODE":55.211,"ARG_OF_PERICENTER":137.9759,"MEAN_ANOMALY":238.1716,"EPHEMERIS_TYPE":0,"CLASSIFICATION_TYPE":"U","NORAD_CAT_ID":45823,"ELEMENT_SET_NO":999,"REV_AT_EPOCH":23767,"BSTAR":0.00024993111,"MEAN_MOTION_DOT":1.115e-5,"MEAN_MOTION_DDOT":0}]
